NORAD_CAT_ID,OBJECT_NAME,OBJECT_TYPE,EPOCH,MEAN_MOTION,ECCENTRICITY,INCLINATION,RA_OF_ASC_NODE,ARG_OF_PERICENTER,MEAN_ANOMALY,BSTAR,MEAN_MOTION_DOT,MEAN_MOTION_DDOT,TLE_LINE0,TLE_LINE1,TLE_LINE2,SEMIMAJOR_AXIS,PERIOD,APOGEE,PERIGEE,DECAYED
53911.0,STARLINK-5048,PAYLOAD,2023-01-10 14:20:52,15.08834113,0.0001368,53.2161,95.2116,58.7914,301.3212,-4.3938e-05,-9.87e-06,0.0,0 STARLINK-5048,1 53911U 22119AB  23010.59783328 -.00000987  00000-0 -43938-4 0  9992,2 53911  53.2161  95.2116 0001368  58.7914 301.3212 15.08834113 17593,6917.898,95.438,540.71,538.817,0.0
53911.0,STARLINK-5048,PAYLOAD,2023-01-11 11:00:52,15.0884455,0.0001391,53.2163,91.3459,61.4535,298.6597,3.2084e-05,2.23e-06,0.0,0 STARLINK-5048,1 53911U 22119AB  23011.45894356  .00000223  00000-0  32084-4 0  9993,2 53911  53.2163  91.3459 0001391  61.4535 298.6597 15.08844550 17307,6917.866,95.437,540.694,538.769,0.0
53911.0,STARLINK-5048,PAYLOAD,2023-01-11 14:11:38,15.08844606,0.0001396999999999,53.2161,90.7512,59.1895,300.9235,3.8584e-05,3.26e-06,0.0,0 STARLINK-5048,1 53911U 22119AB  23011.59142297  .00000326  00000-0  38584-4 0  9993,2 53911  53.2161  90.7512 0001397  59.1895 300.9235 15.08844606 17743,6917.866,95.437,540.698,538.765,0.0
53911.0,STARLINK-5048,PAYLOAD,2023-01-11 15:47:02,15.08842718,0.0001460999999999,53.2162,90.454,56.7158,303.3974,2.3504e-05,8.6e-07,0.0,0 STARLINK-5048,1 53911U 22119AB  23011.65766477  .00000086  00000-0  23504-4 0  9991,2 53911  53.2162  90.4540 0001461  56.7158 303.3974 15.08842718 17759,6917.871999999999,95.437,540.748,538.726,0.0
53911.0,STARLINK-5048,PAYLOAD,2023-01-12 21:59:22,15.08832879,0.000152,53.218,84.805,61.9252,298.1893,6.429e-05,7.35e-06,0.0,0 STARLINK-5048,1 53911U 22119AB  23012.91622932  .00000735  00000-0  64290-4 0  9996,2 53911  53.2180  84.8050 0001520  61.9252 298.1893 15.08832879 17524,6917.901999999999,95.438,540.819,538.716,0.0
53911.0,STARLINK-5048,PAYLOAD,2023-01-13 12:17:51,15.08829349,0.0001343,53.2162,82.1269,71.1337,288.9801,-0.00012486,-2.274e-05,0.0,0 STARLINK-5048,1 53911U 22119AB  23013.51240131 -.00002274  00000-0 -12486-3 0  9991,2 53911  53.2162  82.1269 0001343  71.1337 288.9801 15.08829349 17611,6917.9130000000005,95.438,540.707,538.849,0.0
53911.0,STARLINK-5048,PAYLOAD,2023-01-13 21:50:10,15.08828111,0.0001391,53.2169,80.3439,65.4853,294.6284,-8.6586e-05,-1.665e-05,0.0,0 STARLINK-5048,1 53911U 22119AB  23013.90984330 -.00001665  00000-0 -86586-4 0  9996,2 53911  53.2169  80.3439 0001391  65.4853 294.6284 15.08828111 18097,6917.917,95.438,540.744,538.819,0.0
53911.0,STARLINK-5048,PAYLOAD,2023-01-14 10:33:14,15.08848305,0.0001504,53.2158,77.964,75.2598,284.8561,6.0284e-05,6.72e-06,0.0,0 STARLINK-5048,1 53911U 22119AB  23014.43974601  .00000672  00000-0  60284-4 0  9997,2 53911  53.2158  77.9640 0001504  75.2598 284.8561 15.08848305 17750,6917.855,95.437,540.76,538.68,0.0
53911.0,STARLINK-5048,PAYLOAD,2023-01-14 13:43:59,15.08862571,0.0001372,53.2179,77.3675,85.7508,274.36400000000003,0.00012602,1.719e-05,0.0,0 STARLINK-5048,1 53911U 22119AB  23014.57221317  .00001719  00000-0  12602-3 0  9994,2 53911  53.2179  77.3675 0001372  85.7508 274.3640 15.08862571 17770,6917.811,95.436,540.626,538.727,0.0
53911.0,STARLINK-5048,PAYLOAD,2023-01-15 04:02:29,15.08817542,0.0001478,53.2173,74.6937,91.4406,268.6755,0.00013396,1.843e-05,0.0,0 STARLINK-5048,1 53911U 22119AB  23015.16840265  .00001843  00000-0  13396-3 0  9998,2 53911  53.2173  74.6937 0001478  91.4406 268.6755 15.08817542 17864,6917.9490000000005,95.439,540.837,538.7919999999999,0.0
53911.0,STARLINK-5048,PAYLOAD,2023-01-15 10:24:02,15.08824475,0.0001636999999999,53.2158,73.5049,88.1674,271.9506,0.00013836,1.914e-05,0.0,0 STARLINK-5048,1 53911U 22119AB  23015.43336109  .00001914  00000-0  13836-3 0  9993,2 53911  53.2158  73.5049 0001637  88.1674 271.9506 15.08824475 17905,6917.928000000001,95.439,540.925,538.66,0.0
53911.0,STARLINK-5048,PAYLOAD,2023-01-16 10:14:47,15.08867708,0.0001085,53.2182,69.0418,87.6991,272.4126,3.5433000000000004e-05,2.77e-06,0.0,0 STARLINK-5048,1 53911U 22119AB  23016.42694011  .00000277  00000-0  35433-4 0  9991,2 53911  53.2182  69.0418 0001085  87.6991 272.4126 15.08867708 18052,6917.795999999999,95.436,540.411,538.91,0.0
53911.0,STARLINK-5048,PAYLOAD,2023-01-16 11:50:10,15.08868116,0.0001105,53.2185,68.7446,88.2308,271.881,3.9113e-05,3.35e-06,0.0,0 STARLINK-5048,1 53911U 22119AB  23016.49317878  .00000335  00000-0  39113-4 0  9995,2 53911  53.2185  68.7446 0001105  88.2308 271.8810 15.08868116 18488,6917.794,95.436,540.424,538.895,0.0
53911.0,STARLINK-5048,PAYLOAD,2023-01-16 19:47:08,15.08833892,0.0001255,53.2189,67.2598,95.6004,264.5131,-0.00026944,-4.573e-05,0.0,0 STARLINK-5048,1 53911U 22119AB  23016.82440866 -.00004573  00000-0 -26944-3 0  9993,2 53911  53.2189  67.2598 0001255  95.6004 264.5131 15.08833892 18539,6917.899,95.438,540.632,538.896,0.0
53911.0,STARLINK-5048,PAYLOAD,2023-01-17 03:44:05,15.08812148,0.0002029,53.2182,65.7733,94.7617,265.3607,-9.1038e-05,-1.736e-05,0.0,0 STARLINK-5048,1 53911U 22119AB  23017.15562451 -.00001736  00000-0 -91038-4 0  9990,2 53911  53.2182  65.7733 0002029  94.7617 265.3607 15.08812148 18163,6917.965999999999,95.439,541.234,538.427,0.0
53911.0,STARLINK-5048,PAYLOAD,2023-01-17 10:05:38,15.0880438,0.0001737,53.2206,64.584,108.8766,251.2415,-4.0868e-05,-9.38e-06,0.0,0 STARLINK-5048,1 53911U 22119AB  23017.42058987 -.00000938  00000-0 -40868-4 0  9992,2 53911  53.2206  64.5840 0001737 108.8766 251.2415 15.08804380 18624,6917.9890000000005,95.44,541.056,538.653,0.0
53911.0,STARLINK-5048,PAYLOAD,2023-01-18 03:34:52,15.08837434,0.0001044999999999,53.2186,61.3121,113.5949,246.5153,-0.00015199,-2.706e-05,0.0,0 STARLINK-5048,1 53911U 22119AB  23018.14922144 -.00002706  00000-0 -15199-3 0  9990,2 53911  53.2186  61.3121 0001045 113.5949 246.5153 15.08837434 18314,6917.888000000001,95.438,540.476,539.03,0.0
53911.0,STARLINK-5048,PAYLOAD,2023-01-18 09:56:23,15.08857066,9.67e-05,53.2181,60.1229,114.0281,246.0813,1.5741e-05,-3.7e-07,0.0,0 STARLINK-5048,1 53911U 22119AB  23018.41416295 -.00000037  00000-0  15741-4 0  9993,2 53911  53.2181  60.1229 0000967 114.0281 246.0813 15.08857066 18357,6917.828,95.436,540.362,539.024,0.0
53911.0,STARLINK-5048,PAYLOAD,2023-01-18 19:28:41,15.088607500000002,9.14e-05,53.2181,58.3386,105.8708,254.2385,6.0463e-05,6.75e-06,0.0,0 STARLINK-5048,1 53911U 22119AB  23018.81159611  .00000675  00000-0  60463-4 0  9991,2 53911  53.2181  58.3386 0000914 105.8708 254.2385 15.08860750 18836,6917.816999999999,95.436,540.314,539.05,0.0
53911.0,STARLINK-5048,PAYLOAD,2023-01-19 03:25:38,15.08828867,0.0001615,53.2215,56.8533,114.5178,245.5982,0.00028833,4.302e-05,0.0,0 STARLINK-5048,1 53911U 22119AB  23019.14281116  .00004302  00000-0  28833-3 0  9999,2 53911  53.2215  56.8533 0001615 114.5178 245.5982 15.08828867 18466,6917.914000000001,95.438,540.8969999999999,538.6619999999999,0.0
53911.0,STARLINK-5048,PAYLOAD,2023-01-19 09:47:11,15.08836539,7.82e-05,53.2201,55.6636,107.435,252.6728,0.00026808,3.981e-05,0.0,0 STARLINK-5048,1 53911U 22119AB  23019.40776836  .00003981  00000-0  26808-3 0  9998,2 53911  53.2201  55.6636 0000782 107.4350 252.6728 15.08836539 18922,6917.891,95.438,540.297,539.215,0.0
53911.0,STARLINK-5048,PAYLOAD,2023-01-19 19:19:29,15.08845758,0.0001136,53.2191,53.8783,92.2016,267.9106,0.0001238,1.683e-05,0.0,0 STARLINK-5048,1 53911U 22119AB  23019.80520669  .00001683  00000-0  12380-3 0  9990,2 53911  53.2191  53.8783 0001136  92.2016 267.9106 15.08845758 18569,6917.863,95.437,540.514,538.942,0.0
53911.0,STARLINK-5048,PAYLOAD,2023-01-20 01:41:03,15.08835368,0.0001056,53.2183,52.6887,94.1967,265.9146,-0.0001749,-3.07e-05,0.0,0 STARLINK-5048,1 53911U 22119AB  23020.07018418 -.00003070  00000-0 -17490-3 0  9996,2 53911  53.2183  52.6887 0001056  94.1967 265.9146 15.08835368 18602,6917.895,95.438,540.49,539.029,0.0
53911.0,STARLINK-5048,PAYLOAD,2023-01-20 11:13:21,15.08843357,0.0001196,53.2194,50.9057,94.9087,265.2041,-6.1503e-05,-1.267e-05,0.0,0 STARLINK-5048,1 53911U 22119AB  23020.46761498 -.00001267  00000-0 -61503-4 0  9993,2 53911  53.2194  50.9057 0001196  94.9087 265.2041 15.08843357 18660,6917.87,95.437,540.563,538.908,0.0
53911.0,STARLINK-5048,PAYLOAD,2023-01-21 01:31:50,15.08833692,0.0001259,53.2186,48.229,82.8112,277.3023,-6.2678e-05,-1.285e-05,0.0,0 STARLINK-5048,1 53911U 22119AB  23021.06378064 -.00001285  00000-0 -62678-4 0  9997,2 53911  53.2186  48.2290 0001259  82.8112 277.3023 15.08833692 18750,6917.9,95.438,540.636,538.894,0.0
53911.0,STARLINK-5048,PAYLOAD,2023-01-21 11:04:08,15.08846465,0.0001124,53.2174,46.443000000000005,89.4498,270.6623,-5.5443e-05,-1.17e-05,0.0,0 STARLINK-5048,1 53911U 22119AB  23021.46121177 -.00001170  00000-0 -55443-4 0  9997,2 53911  53.2174  46.4430 0001124  89.4498 270.6623 15.08846465 18815,6917.861,95.437,540.503,538.948,0.0
53911.0,STARLINK-5048,PAYLOAD,2023-01-23 01:13:24,15.08828278,0.0001155999999999,53.2167,39.3062,81.0488,279.0635,-2.136e-05,-6.28e-06,0.0,0 STARLINK-5048,1 53911U 22119AB  23023.05098374 -.00000628  00000-0 -21360-4 0  9994,2 53911  53.2167  39.3062 0001156  81.0488 279.0635 15.08828278 19056,6917.916,95.438,540.581,538.982,0.0
53911.0,STARLINK-5048,PAYLOAD,2023-01-24 01:04:12,15.08838216,0.0001512,53.2182,34.8461,92.9854,267.1311,-9.9381e-05,-1.869e-05,0.0,0 STARLINK-5048,1 53911U 22119AB  23024.04458461 -.00001869  00000-0 -99381-4 0  9997,2 53911  53.2182  34.8461 0001512  92.9854 267.1311 15.08838216 19209,6917.886,95.438,540.797,538.705,0.0
53911.0,STARLINK-5048,PAYLOAD,2023-01-24 09:01:06,15.08848275,0.0001607,53.2192,33.3593,93.2917,266.8259,-1.1616e-05,-4.73e-06,0.0,0 STARLINK-5048,1 53911U 22119AB  23024.37577433 -.00000473  00000-0 -11616-4 0  9999,2 53911  53.2192  33.3593 0001607  93.2917 266.8259 15.08848275 19257,6917.855,95.437,540.832,538.6080000000001,0.0
